
# Worst residual: 3.67 km
# MJD 57955.000000 (2017 Jul 21  0:00)
YS16534
1 99999U 00000    17202.49919926  .00000000  00000-0  00000-0 0    09
2 99999 019.6954 022.6209 8394007 149.9708 246.6680 00.47814652    00

# Worst residual: 13.21 km
# MJD 57956.000000 (2017 Jul 22  0:00)
YS16534
1 99999U 00000    17203.49919926  .00000000  00000-0  00000-0 0    00
2 99999 019.7090 022.5699 8393169 150.0513 058.7542 00.47816840    09

# Worst residual: 6.45 km
# MJD 57957.000000 (2017 Jul 23  0:00)
YS16534
1 99999U 00000    17204.49919926  .00000000  00000-0  00000-0 0    01
2 99999 019.7090 022.5497 8394633 150.1027 230.7406 00.47804022    03

# Worst residual: 11.65 km
# MJD 57958.000000 (2017 Jul 24  0:00)
YS16534
1 99999U 00000    17205.49919926  .00000000  00000-0  00000-0 0    02
2 99999 019.7214 022.5033 8394606 150.1852 042.8137 00.47807971    02

# Worst residual: 6.48 km
# MJD 57959.000000 (2017 Jul 25  0:00)
YS16534
1 99999U 00000    17206.49919926  .00000000  00000-0  00000-0 0    03
2 99999 019.7206 022.4817 8394602 150.2348 214.8491 00.47801614    01

# Worst residual: 18.13 km
# MJD 57960.000000 (2017 Jul 26  0:00)
YS16534
1 99999U 00000    17207.49919926  .00000000  00000-0  00000-0 0    04
2 99999 019.7313 022.4400 8394829 150.3071 026.9150 00.47789469    00

# Worst residual: 2.62 km
# MJD 57961.000000 (2017 Jul 27  0:00)
YS16534
1 99999U 00000    17208.49919926  .00000000  00000-0  00000-0 0    05
2 99999 019.7303 022.4168 8394778 150.3526 198.9984 00.47804237    04

# Worst residual: 17.43 km
# MJD 57962.000000 (2017 Jul 28  0:00)
YS16534
1 99999U 00000    17209.49919926  .00000000  00000-0  00000-0 0    06
2 99999 019.7397 022.3790 8395115 150.4155 011.0734 00.47788117    08

# Worst residual: 3.49 km
# MJD 57963.000000 (2017 Jul 29  0:00)
YS16534
1 99999U 00000    17210.49919926  .00000000  00000-0  00000-0 0    08
2 99999 019.7399 022.3512 8395518 150.4676 183.1536 00.47805635    03

# Worst residual: 11.73 km
# MJD 57964.000000 (2017 Jul 30  0:00)
YS16534
1 99999U 00000    17211.49919926  .00000000  00000-0  00000-0 0    09
2 99999 019.7496 022.3151 8395516 150.5300 355.2203 00.47805086    06

# Worst residual: 3.38 km
# MJD 57965.000000 (2017 Jul 31  0:00)
YS16534
1 99999U 00000    17212.49919926  .00000000  00000-0  00000-0 0    00
2 99999 019.7514 022.2823 8396319 150.5920 167.2885 00.47807433    07

# Worst residual: 6.76 km
# MJD 57966.000000 (2017 Aug  1  0:00)
YS16534
1 99999U 00000    17213.49919926  .00000000  00000-0  00000-0 0    01
2 99999 019.7626 022.2462 8395346 150.6555 339.3356 00.47814247    00

# Worst residual: 2.22 km
# MJD 57967.000000 (2017 Aug  2  0:00)
YS16534
1 99999U 00000    17214.49919926  .00000000  00000-0  00000-0 0    02
2 99999 019.7653 022.2104 8396438 150.7201 151.4084 00.47812194    05

# Worst residual: 10.45 km
# MJD 57968.000000 (2017 Aug  3  0:00)
YS16534
1 99999U 00000    17215.49919926  .00000000  00000-0  00000-0 0    03
2 99999 019.7767 022.1748 8394270 150.7771 323.4700 00.47807187    00

# Worst residual: 3.86 km
# MJD 57969.000000 (2017 Aug  4  0:00)
YS16534
1 99999U 00000    17216.49919926  .00000000  00000-0  00000-0 0    04
2 99999 019.7803 022.1366 8395833 150.8393 135.5380 00.47815520    00

# Worst residual: 9.28 km
# MJD 57970.000000 (2017 Aug  5  0:00)
YS16534
1 99999U 00000    17217.49919926  .00000000  00000-0  00000-0 0    05
2 99999 019.7891 022.1047 8393769 150.8841 307.6552 00.47797584    09

# Worst residual: 8.34 km
# MJD 57971.000000 (2017 Aug  6  0:00)
YS16534
1 99999U 00000    17218.49919926  .00000000  00000-0  00000-0 0    06
2 99999 019.7954 022.0600 8395629 150.9533 119.6919 00.47807570    04

# Worst residual: 13.54 km
# MJD 57972.000000 (2017 Aug  7  0:00)
YS16534
1 99999U 00000    17219.49919926  .00000000  00000-0  00000-0 0    07
2 99999 019.8001 022.0327 8396629 150.9937 291.8253 00.47796311    07

# Worst residual: 8.24 km
# MJD 57973.000000 (2017 Aug  8  0:00)
YS16534
1 99999U 00000    17220.49919926  .00000000  00000-0  00000-0 0    09
2 99999 019.8125 021.9766 8397627 151.0924 103.8374 00.47790691    07

# Worst residual: 17.79 km
# MJD 57974.000000 (2017 Aug  9  0:00)
YS16534
1 99999U 00000    17221.49919926  .00000000  00000-0  00000-0 0    00
2 99999 019.8222 021.9419 8400395 151.1526 275.8381 00.47791466    05

# Worst residual: 12.47 km
# MJD 57975.000000 (2017 Aug 10  0:00)
YS16534
1 99999U 00000    17222.49919926  .00000000  00000-0  00000-0 0    01
2 99999 019.8377 021.8817 8401513 151.2802 087.8624 00.47790017    00

# Worst residual: 6.53 km
# MJD 57976.000000 (2017 Aug 11  0:00)
YS16534
1 99999U 00000    17223.49919926  .00000000  00000-0  00000-0 0    02
2 99999 019.8512 021.8402 8399303 151.3609 259.7784 00.47781906    04

# Worst residual: 14.27 km
# MJD 57977.000000 (2017 Aug 12  0:00)
YS16534
1 99999U 00000    17224.49919926  .00000000  00000-0  00000-0 0    03
2 99999 019.8698 021.7836 8399654 151.4739 071.7910 00.47799535    03

# Worst residual: 9.57 km
# MJD 57978.000000 (2017 Aug 13  0:00)
YS16534
1 99999U 00000    17225.49919926  .00000000  00000-0  00000-0 0    04
2 99999 019.8747 021.7556 8395713 151.5291 243.8668 00.47795575    05

# Worst residual: 10.71 km
# MJD 57979.000000 (2017 Aug 14  0:00)
YS16534
1 99999U 00000    17226.49919926  .00000000  00000-0  00000-0 0    05
2 99999 019.8920 021.7054 8393498 151.6064 055.8764 00.47801887    00
